start=new Date('2023-03-17T00:00:00.000Z').valueOf();
sats=[{"MEAN_MOTION":"15.06335312","REF_FRAME":"TEME","ARG_OF_PERICENTER":"88.3038","ECCENTRICITY":"0.00010660","EPHEMERIS_TYPE":"0","EPOCH":"2023-03-16T11:32:30.249888","PERIOD":"95.596","GP_ID":"228246039","NORAD_CAT_ID":"46752","RCS_SIZE":"LARGE","FILE":"3862295","ELEMENT_SET_NO":"999","DECAY_DATE":null,"MEAN_ELEMENT_THEORY":"SGP4","MEAN_ANOMALY":"271.8073","CENTER_NAME":"EARTH","MEAN_MOTION_DDOT":"0.0000000000000","OBJECT_TYPE":"PAYLOAD","LAUNCH_DATE":"2020-10-24","RA_OF_ASC_NODE":"171.2646","COUNTRY_CODE":"US","MEAN_MOTION_DOT":"-0.00000736","INCLINATION":"53.0545","SITE":"AFETR","OBJECT_NAME":"STARLINK-1921","APOAPSIS":"548.150","TLE_LINE1":"1 46752U 20074P   23075.48090567 -.00000736  00000-0 -30600-4 0  9994","TIME_SYSTEM":"UTC","CLASSIFICATION_TYPE":"U","OBJECT_ID":"2020-074P","TLE_LINE2":"2 46752  53.0545 171.2646 0001066  88.3038 271.8073 15.06335312132506","REV_AT_EPOCH":"13250","BSTAR":"-0.00003060000000","PERIAPSIS":"546.674","SEMIMAJOR_AXIS":"6925.547"},{"FILE":"3862592","EPOCH":"2023-03-16T15:31:20.612640","PERIOD":"95.597","GP_ID":"228279996","NORAD_CAT_ID":"46753","RCS_SIZE":"LARGE","MEAN_MOTION":"15.06325021","REF_FRAME":"TEME","ARG_OF_PERICENTER":"99.8189","ECCENTRICITY":"0.00021660","EPHEMERIS_TYPE":"0","INCLINATION":"53.0525","SITE":"AFETR","COUNTRY_CODE":"US","MEAN_MOTION_DOT":"-0.00014085","OBJECT_TYPE":"PAYLOAD","LAUNCH_DATE":"2020-10-24","RA_OF_ASC_NODE":"170.5218","DECAY_DATE":null,"MEAN_ELEMENT_THEORY":"SGP4","ELEMENT_SET_NO":"999","MEAN_ANOMALY":"260.3045","CENTER_NAME":"EARTH","MEAN_MOTION_DDOT":"0.0000000000000","OBJECT_ID":"2020-074Q","TLE_LINE2":"2 46753  53.0525 170.5218 0002166  99.8189 260.3045 15.06325021132539","TIME_SYSTEM":"UTC","CLASSIFICATION_TYPE":"U","TLE_LINE1":"1 46753U 20074Q   23075.64676635 -.00014085  00000-0 -93041-3 0  9998","OBJECT_NAME":"STARLINK-1922","APOAPSIS":"548.943","PERIAPSIS":"545.943","SEMIMAJOR_AXIS":"6925.578","BSTAR":"-0.00093041000000","REV_AT_EPOCH":"13253"},{"SEMIMAJOR_AXIS":"6925.621","PERIAPSIS":"546.569","BSTAR":"0.00245070000000","REV_AT_EPOCH":"13250","TLE_LINE2":"2 46754  53.0522 171.3823 0001325  58.8165 301.2953 15.06310971132501","OBJECT_ID":"2020-074R","CLASSIFICATION_TYPE":"U","TIME_SYSTEM":"UTC","TLE_LINE1":"1 46754U 20074R   23075.45508229  .00036323  00000-0  24507-2 0  9998","OBJECT_NAME":"STARLINK-1923","APOAPSIS":"548.404","SITE":"AFETR","INCLINATION":"53.0522","COUNTRY_CODE":"US","MEAN_MOTION_DOT":"0.00036323","LAUNCH_DATE":"2020-10-24","RA_OF_ASC_NODE":"171.3823","OBJECT_TYPE":"PAYLOAD","CENTER_NAME":"EARTH","MEAN_MOTION_DDOT":"0.0000000000000","DECAY_DATE":null,"MEAN_ELEMENT_THEORY":"SGP4","MEAN_ANOMALY":"301.2953","ELEMENT_SET_NO":"999","FILE":"3862295","GP_ID":"228247040","RCS_SIZE":"LARGE","NORAD_CAT_ID":"46754","PERIOD":"95.598","EPOCH":"2023-03-16T10:55:19.109856","ARG_OF_PERICENTER":"58.8165","ECCENTRICITY":"0.00013250","REF_FRAME":"TEME","EPHEMERIS_TYPE":"0","MEAN_MOTION":"15.06310971"},{"RA_OF_ASC_NODE":"176.3600","LAUNCH_DATE":"2020-10-24","OBJECT_TYPE":"PAYLOAD","MEAN_MOTION_DDOT":"0.0000000000000","CENTER_NAME":"EARTH","DECAY_DATE":null,"MEAN_ANOMALY":"267.2776","ELEMENT_SET_NO":"999","MEAN_ELEMENT_THEORY":"SGP4","SITE":"AFETR","INCLINATION":"53.0540","COUNTRY_CODE":"US","MEAN_MOTION_DOT":"-0.00012381","EPHEMERIS_TYPE":"0","ECCENTRICITY":"0.00013410","REF_FRAME":"TEME","ARG_OF_PERICENTER":"92.8367","MEAN_MOTION":"15.06304275","FILE":"3862295","RCS_SIZE":"LARGE","NORAD_CAT_ID":"46755","GP_ID":"228247282","PERIOD":"95.598","EPOCH":"2023-03-16T11:02:40.570656","BSTAR":"-0.00081582000000","REV_AT_EPOCH":"13243","SEMIMAJOR_AXIS":"6925.642","PERIAPSIS":"546.578","TLE_LINE1":"1 46755U 20074S   23075.46019179 -.00012381  00000-0 -81582-3 0  9998","APOAPSIS":"548.436","OBJECT_NAME":"STARLINK-1924","TLE_LINE2":"2 46755  53.0540 176.3600 0001341  92.8367 267.2776 15.06304275132436","OBJECT_ID":"2020-074S","CLASSIFICATION_TYPE":"U","TIME_SYSTEM":"UTC"},{"RA_OF_ASC_NODE":"176.9184","LAUNCH_DATE":"2020-10-24","OBJECT_TYPE":"PAYLOAD","CENTER_NAME":"EARTH","MEAN_MOTION_DDOT":"0.0000000000000","DECAY_DATE":null,"MEAN_ELEMENT_THEORY":"SGP4","ELEMENT_SET_NO":"999","MEAN_ANOMALY":"266.1216","SITE":"AFETR","INCLINATION":"53.0558","COUNTRY_CODE":"US","MEAN_MOTION_DOT":"0.00066881","REF_FRAME":"TEME","ARG_OF_PERICENTER":"93.9937","ECCENTRICITY":"0.00014310","EPHEMERIS_TYPE":"0","MEAN_MOTION":"15.06253671","FILE":"3862295","GP_ID":"228245539","RCS_SIZE":"LARGE","NORAD_CAT_ID":"46756","PERIOD":"95.601","EPOCH":"2023-03-16T10:09:28.070784","BSTAR":"0.00448420000000","REV_AT_EPOCH":"13242","SEMIMAJOR_AXIS":"6925.797","PERIAPSIS":"546.671","TLE_LINE1":"1 46756U 20074T   23075.42324156  .00066881  00000-0  44842-2 0  9998","OBJECT_NAME":"STARLINK-1925","APOAPSIS":"548.653","TLE_LINE2":"2 46756  53.0558 176.9184 0001431  93.9937 266.1216 15.06253671132423","OBJECT_ID":"2020-074T","CLASSIFICATION_TYPE":"U","TIME_SYSTEM":"UTC"},{"OBJECT_ID":"2020-074U","TLE_LINE2":"2 46757  53.0535 175.2079 0001561 105.8237 254.2924 15.06358049132478","TIME_SYSTEM":"UTC","CLASSIFICATION_TYPE":"U","TLE_LINE1":"1 46757U 20074U   23075.76980950  .00002695  00000-0  19994-3 0  9990","APOAPSIS":"548.423","OBJECT_NAME":"STARLINK-1926","PERIAPSIS":"546.261","SEMIMAJOR_AXIS":"6925.477","BSTAR":"0.00019994000000","REV_AT_EPOCH":"13247","FILE":"3862592","EPOCH":"2023-03-16T18:28:31.540800","PERIOD":"95.595","NORAD_CAT_ID":"46757","RCS_SIZE":"LARGE","GP_ID":"228280496","MEAN_MOTION":"15.06358049","EPHEMERIS_TYPE":"0","ECCENTRICITY":"0.00015610","REF_FRAME":"TEME","ARG_OF_PERICENTER":"105.8237","INCLINATION":"53.0535","SITE":"AFETR","COUNTRY_CODE":"US","MEAN_MOTION_DOT":"0.00002695","OBJECT_TYPE":"PAYLOAD","RA_OF_ASC_NODE":"175.2079","LAUNCH_DATE":"2020-10-24","MEAN_ANOMALY":"254.2924","DECAY_DATE":null,"MEAN_ELEMENT_THEORY":"SGP4","ELEMENT_SET_NO":"999","MEAN_MOTION_DDOT":"0.0000000000000","CENTER_NAME":"EARTH"},{"MEAN_MOTION":"15.06342650","ECCENTRICITY":"0.00012200","REF_FRAME":"TEME","ARG_OF_PERICENTER":"114.2107","EPHEMERIS_TYPE":"0","EPOCH":"2023-03-16T15:22:42.508128","PERIOD":"95.596","GP_ID":"228280247","RCS_SIZE":"LARGE","NORAD_CAT_ID":"46758","FILE":"3862592","ELEMENT_SET_NO":"999","DECAY_DATE":null,"MEAN_ELEMENT_THEORY":"SGP4","MEAN_ANOMALY":"245.9009","CENTER_NAME":"EARTH","MEAN_MOTION_DDOT":"0.0000000000000","OBJECT_TYPE":"PAYLOAD","LAUNCH_DATE":"2020-10-24","RA_OF_ASC_NODE":"175.5500","COUNTRY_CODE":"US","MEAN_MOTION_DOT":"-0.00016243","INCLINATION":"53.0542","SITE":"AFETR","OBJECT_NAME":"STARLINK-1928","APOAPSIS":"548.234","TLE_LINE1":"1 46758U 20074V   23075.64076977 -.00016243  00000-0 -10757-2 0  9996","TIME_SYSTEM":"UTC","CLASSIFICATION_TYPE":"U","OBJECT_ID":"2020-074V","TLE_LINE2":"2 46758  53.0542 175.5500 0001220 114.2107 245.9009 15.06342650132462","REV_AT_EPOCH":"13246","BSTAR":"-0.00107570000000","PERIAPSIS":"546.544","SEMIMAJOR_AXIS":"6925.524"},{"OBJECT_TYPE":"PAYLOAD","LAUNCH_DATE":"2020-10-24","RA_OF_ASC_NODE":"186.7611","MEAN_ANOMALY":"276.0022","DECAY_DATE":null,"MEAN_ELEMENT_THEORY":"SGP4","ELEMENT_SET_NO":"999","CENTER_NAME":"EARTH","MEAN_MOTION_DDOT":"0.0000000000000","INCLINATION":"53.0527","SITE":"AFETR","COUNTRY_CODE":"US","MEAN_MOTION_DOT":"-0.00005793","MEAN_MOTION":"15.06328533","ARG_OF_PERICENTER":"84.1104","REF_FRAME":"TEME","ECCENTRICITY":"0.00012000","EPHEMERIS_TYPE":"0","FILE":"3862295","PERIOD":"95.597","EPOCH":"2023-03-16T08:53:56.491872","GP_ID":"228246783","RCS_SIZE":"LARGE","NORAD_CAT_ID":"46759","BSTAR":"-0.00037105000000","REV_AT_EPOCH":"13227","PERIAPSIS":"546.602","SEMIMAJOR_AXIS":"6925.568","TLE_LINE1":"1 46759U 20074W   23075.37079273 -.00005793  00000-0 -37105-3 0  9994","OBJECT_NAME":"STARLINK-1833","APOAPSIS":"548.264","OBJECT_ID":"2020-074W","TLE_LINE2":"2 46759  53.0527 186.7611 0001200  84.1104 276.0022 15.06328533132276","TIME_SYSTEM":"UTC","CLASSIFICATION_TYPE":"U"},{"EPOCH":"2023-03-16T09:09:46.550592","PERIOD":"95.596","GP_ID":"228246040","RCS_SIZE":"LARGE","NORAD_CAT_ID":"46760","FILE":"3862295","MEAN_MOTION":"15.06342093","ECCENTRICITY":"0.00012520","REF_FRAME":"TEME","ARG_OF_PERICENTER":"95.3081","EPHEMERIS_TYPE":"0","MEAN_MOTION_DOT":"-0.00028199","COUNTRY_CODE":"US","INCLINATION":"53.0510","SITE":"AFETR","DECAY_DATE":null,"MEAN_ELEMENT_THEORY":"SGP4","MEAN_ANOMALY":"264.8051","ELEMENT_SET_NO":"999","CENTER_NAME":"EARTH","MEAN_MOTION_DDOT":"0.0000000000000","OBJECT_TYPE":"PAYLOAD","RA_OF_ASC_NODE":"186.7099","LAUNCH_DATE":"2020-10-24","CLASSIFICATION_TYPE":"U","TIME_SYSTEM":"UTC","OBJECT_ID":"2020-074X","TLE_LINE2":"2 46760  53.0510 186.7099 0001252  95.3081 264.8051 15.06342093132280","OBJECT_NAME":"STARLINK-1896","APOAPSIS":"548.258","TLE_LINE1":"1 46760U 20074X   23075.38178878 -.00028199  00000-0 -18847-2 0  9994","PERIAPSIS":"546.524","SEMIMAJOR_AXIS":"6925.526","REV_AT_EPOCH":"13228","BSTAR":"-0.00188470000000"},{"SEMIMAJOR_AXIS":"6925.497","PERIAPSIS":"546.397","REV_AT_EPOCH":"13233","BSTAR":"-0.00090179000000","CLASSIFICATION_TYPE":"U","TIME_SYSTEM":"UTC","TLE_LINE2":"2 46764  53.0517 185.2535 0001393 100.7142 259.4004 15.06351524132338","OBJECT_ID":"2020-074AB","APOAPSIS":"548.327","OBJECT_NAME":"STARLINK-1903","TLE_LINE1":"1 46764U 20074AB  23075.70619249 -.00013670  00000-0 -90179-3 0  9993","COUNTRY_CODE":"US","MEAN_MOTION_DOT":"-0.00013670","SITE":"AFETR","INCLINATION":"53.0517","MEAN_MOTION_DDOT":"0.0000000000000","CENTER_NAME":"EARTH","DECAY_DATE":null,"MEAN_ANOMALY":"259.4004","MEAN_ELEMENT_THEORY":"SGP4","ELEMENT_SET_NO":"999","RA_OF_ASC_NODE":"185.2535","LAUNCH_DATE":"2020-10-24","OBJECT_TYPE":"PAYLOAD","NORAD_CAT_ID":"46764","RCS_SIZE":"LARGE","GP_ID":"228279997","PERIOD":"95.595","EPOCH":"2023-03-16T16:56:55.031136","FILE":"3862592","EPHEMERIS_TYPE":"0","ECCENTRICITY":"0.00013930","REF_FRAME":"TEME","ARG_OF_PERICENTER":"100.7142","MEAN_MOTION":"15.06351524"}];
